[{"OBJECT_NAME":"STARLINK-4451","OBJECT_ID":"2022-099AD","EPOCH":"2026-03-09T21:19:47.475552","MEAN_MOTION":15.01260357,"ECCENTRICITY":0.0002075,"INCLINATION":97.6039,"RA_OF_ASC_NODE":190.4159,"ARG_OF_PERICENTER":231.9168,"MEAN_ANOMALY":128.187,"EPHEMERIS_TYPE":0,"CLASSIFICATION_TYPE":"U","NORAD_CAT_ID":53492,"ELEMENT_SET_NO":999,"REV_AT_EPOCH":19601,"BSTAR":8.9132214e-5,"MEAN_MOTION_DOT":1.087e-5,"MEAN_MOTION_DDOT":0},{"OBJECT_NAME":"COSMOS 249 DEB","OBJECT_ID":"1968-091BP","EPOCH":"2026-03-09T03:57:13.495392","MEAN_MOTION":13.42038189,"ECCENTRICITY":0.07938892,"INCLINATION":62.9233,"RA_OF_ASC_NODE":0.91,"ARG_OF_PERICENTER":72.9065,"MEAN_ANOMALY":295.7294,"EPHEMERIS_TYPE":0,"CLASSIFICATION_TYPE":"U","NORAD_CAT_ID":3911,"ELEMENT_SET_NO":999,"REV_AT_EPOCH":65389,"BSTAR":0.001716156,"MEAN_MOTION_DOT":6.769e-5,"MEAN_MOTION_DDOT":0}]
